{
"type": "FeatureCollection",
"name": "LieuxGeoJson",
"features": [
{ "type": "Feature", "id": "35", "properties": { "rec_ID": "35", "rec_RecTypeID": "12", "rec_Title": "Abydos", "rec_ScratchPad": "", "rec_OwnerUGrpID": "0", "rec_NonOwnerVisibility": "viewable", "rec_Added": "2026-02-26T15:50:30", "rec_Modified": "2026-03-09T15:20:26", "rec_AddedByUGrpID": "2", "details": [ { "ID": 1, "value": "Abydos" }, { "ID": 3, "value": "Cité de Mysie" }, { "ID": 26, "value": "170" }, { "ID": 133, "value": "5040" }, { "ID": 227, "value": "5342" }, { "ID": 970, "value": "6560" }, { "ID": 971, "value": "6395" } ], "Division des cités": "1" }, "geometry": { "type": "Point", "coordinates": [ 26.4071989, 40.1962734 ] } },
{ "type": "Feature", "id": "33", "properties": { "rec_ID": "33", "rec_RecTypeID": "12", "rec_Title": "Aï Khanoum", "rec_ScratchPad": "", "rec_OwnerUGrpID": "0", "rec_NonOwnerVisibility": "viewable", "rec_Added": "2026-02-26T14:26:37", "rec_Modified": "2026-02-26T14:27:57", "rec_AddedByUGrpID": "2", "details": [ { "ID": 1, "value": "Aï Khanoum" }, { "ID": 3, "value": "Cité de Bactriane" }, { "ID": 26, "value": "204" }, { "ID": 133, "value": "5040" }, { "ID": 227, "value": "5342" }, { "ID": 970, "value": "6560" }, { "ID": 971, "value": "6395" } ], "Division des cités": "2" }, "geometry": { "type": "Point", "coordinates": [ 69.4109352, 37.1666578 ] } },
{ "type": "Feature", "id": "23", "properties": { "rec_ID": "23", "rec_RecTypeID": "12", "rec_Title": "Alabanda", "rec_ScratchPad": "", "rec_OwnerUGrpID": "0", "rec_NonOwnerVisibility": "viewable", "rec_Added": "2026-02-26T13:46:28", "rec_Modified": "2026-02-26T13:47:30", "rec_AddedByUGrpID": "2", "details": [ { "ID": 1, "value": "Alabanda" }, { "ID": 3, "value": "Cité de Carie" }, { "ID": 26, "value": "170" }, { "ID": 133, "value": "5040" }, { "ID": 227, "value": "5342" }, { "ID": 970, "value": "6560" }, { "ID": 971, "value": "6395" } ], "Division des cités": "1" }, "geometry": { "type": "Point", "coordinates": [ 27.8345151, 37.5927372 ] } },
{ "type": "Feature", "id": "24", "properties": { "rec_ID": "24", "rec_RecTypeID": "12", "rec_Title": "Alinda", "rec_ScratchPad": "", "rec_OwnerUGrpID": "0", "rec_NonOwnerVisibility": "viewable", "rec_Added": "2026-02-26T13:47:50", "rec_Modified": "2026-02-26T13:48:51", "rec_AddedByUGrpID": "2", "details": [ { "ID": 1, "value": "Alinda" }, { "ID": 3, "value": "Cité de Carie" }, { "ID": 26, "value": "170" }, { "ID": 133, "value": "5040" }, { "ID": 227, "value": "5342" }, { "ID": 970, "value": "6560" }, { "ID": 971, "value": "6395" } ], "Division des cités": "1" }, "geometry": { "type": "Point", "coordinates": [ 27.8267713, 37.5592315 ] } },
{ "type": "Feature", "id": "32", "properties": { "rec_ID": "32", "rec_RecTypeID": "12", "rec_Title": "Amathonte", "rec_ScratchPad": "", "rec_OwnerUGrpID": "0", "rec_NonOwnerVisibility": "viewable", "rec_Added": "2026-02-26T14:24:36", "rec_Modified": "2026-02-26T14:25:49", "rec_AddedByUGrpID": "2", "details": [ { "ID": 1, "value": "Amathonte" }, { "ID": 133, "value": "5040" }, { "ID": 227, "value": "5342" }, { "ID": 970, "value": "6560" }, { "ID": 971, "value": "6395" } ], "Division des cités": "3" }, "geometry": { "type": "Point", "coordinates": [ 33.1433965, 34.7114364 ] } },
{ "type": "Feature", "id": "131", "properties": { "rec_ID": "131", "rec_RecTypeID": "12", "rec_Title": "Amorgos", "rec_ScratchPad": "", "rec_OwnerUGrpID": "0", "rec_NonOwnerVisibility": "viewable", "rec_Added": "2026-03-21T18:40:59", "rec_Modified": "2026-03-21T18:43:49", "rec_AddedByUGrpID": "2", "details": [ { "ID": 1, "value": "Amorgos" }, { "ID": 26, "value": "111" }, { "ID": 133, "value": "5040" }, { "ID": 227, "value": "5342" }, { "ID": 970, "value": "6560" }, { "ID": 971, "value": "6395" } ], "Division des cités": "3" }, "geometry": { "type": "Point", "coordinates": [ 25.887603, 36.8408674 ] } },
{ "type": "Feature", "id": "146", "properties": { "rec_ID": "146", "rec_RecTypeID": "12", "rec_Title": "Andros", "rec_ScratchPad": "", "rec_OwnerUGrpID": "0", "rec_NonOwnerVisibility": "viewable", "rec_Added": "2026-03-25T14:42:03", "rec_Modified": "2026-03-25T14:43:18", "rec_AddedByUGrpID": "2", "details": [ { "ID": 1, "value": "Andros" }, { "ID": 3, "value": "Île des Cyclades" }, { "ID": 26, "value": "111" }, { "ID": 133, "value": "5040" }, { "ID": 227, "value": "5342" }, { "ID": 970, "value": "6560" }, { "ID": 971, "value": "6395" } ], "Division des cités": "3" }, "geometry": { "type": "Point", "coordinates": [ 24.9332691, 37.8337094 ] } },
{ "type": "Feature", "id": "31", "properties": { "rec_ID": "31", "rec_RecTypeID": "12", "rec_Title": "Apamée", "rec_ScratchPad": "", "rec_OwnerUGrpID": "0", "rec_NonOwnerVisibility": "viewable", "rec_Added": "2026-02-26T14:22:35", "rec_Modified": "2026-02-26T14:23:29", "rec_AddedByUGrpID": "2", "details": [ { "ID": 1, "value": "Apamée" }, { "ID": 3, "value": "Cité de Syrie" }, { "ID": 26, "value": "169" }, { "ID": 133, "value": "5040" }, { "ID": 227, "value": "5342" }, { "ID": 970, "value": "6560" }, { "ID": 971, "value": "6395" } ], "Division des cités": "2" }, "geometry": { "type": "Point", "coordinates": [ 36.3830791, 35.4167218 ] } },
{ "type": "Feature", "id": "56", "properties": { "rec_ID": "56", "rec_RecTypeID": "12", "rec_Title": "Argos", "rec_ScratchPad": "", "rec_OwnerUGrpID": "0", "rec_NonOwnerVisibility": "viewable", "rec_Added": "2026-02-26T17:15:41", "rec_Modified": "2026-02-26T17:16:34", "rec_AddedByUGrpID": "2", "details": null, "Division des cités": "5" }, "geometry": { "type": "Point", "coordinates": [ 22.7165986, 37.6166841 ] } },
{ "type": "Feature", "id": "4", "properties": { "rec_ID": "4", "rec_RecTypeID": "12", "rec_Title": "Athènes", "rec_ScratchPad": "", "rec_OwnerUGrpID": "0", "rec_NonOwnerVisibility": "viewable", "rec_Added": "2026-02-25T17:16:06", "rec_Modified": "2026-03-09T15:02:29", "rec_AddedByUGrpID": "2", "details": [ { "ID": 1, "value": "Athènes" }, { "ID": 3, "value": "Cité d'Athènes en Attique" }, { "ID": 26, "value": "111" }, { "ID": 133, "value": "5040" }, { "ID": 227, "value": "5342" }, { "ID": 970, "value": "6560" }, { "ID": 971, "value": "6395" } ], "Division des cités": "5" }, "geometry": { "type": "Point", "coordinates": [ 23.7173567, 37.9666354 ] } },
{ "type": "Feature", "id": "19", "properties": { "rec_ID": "19", "rec_RecTypeID": "12", "rec_Title": "Byzance", "rec_ScratchPad": "", "rec_OwnerUGrpID": "0", "rec_NonOwnerVisibility": "viewable", "rec_Added": "2026-02-26T10:43:45", "rec_Modified": "2026-03-21T18:22:31", "rec_AddedByUGrpID": "2", "details": [ { "ID": 1, "value": "Byzance" }, { "ID": 3, "value": "Cité grecque de Thrace" }, { "ID": 26, "value": "170" }, { "ID": 133, "value": "5040" }, { "ID": 227, "value": "5342" }, { "ID": 970, "value": "6560" }, { "ID": 971, "value": "6395" } ], "Division des cités": "4" }, "geometry": { "type": "Point", "coordinates": [ 28.9839166, 41.0127152 ] } },
{ "type": "Feature", "id": "40", "properties": { "rec_ID": "40", "rec_RecTypeID": "12", "rec_Title": "Carpathos", "rec_ScratchPad": "", "rec_OwnerUGrpID": "0", "rec_NonOwnerVisibility": "viewable", "rec_Added": "2026-02-26T16:32:24", "rec_Modified": "2026-02-26T16:33:49", "rec_AddedByUGrpID": "2", "details": [ { "ID": 1, "value": "Carpathos" }, { "ID": 3, "value": "Cité de l'archipel de Dédocanèse" }, { "ID": 26, "value": "111" }, { "ID": 133, "value": "5040" }, { "ID": 227, "value": "5342" }, { "ID": 970, "value": "6560" }, { "ID": 971, "value": "6395" } ], "Division des cités": "3" }, "geometry": { "type": "Point", "coordinates": [ 27.2125014, 35.5074835 ] } },
{ "type": "Feature", "id": "36", "properties": { "rec_ID": "36", "rec_RecTypeID": "12", "rec_Title": "Caunos", "rec_ScratchPad": "", "rec_OwnerUGrpID": "0", "rec_NonOwnerVisibility": "viewable", "rec_Added": "2026-02-26T15:52:19", "rec_Modified": "2026-02-26T15:53:53", "rec_AddedByUGrpID": "2", "details": [ { "ID": 1, "value": "Caunos" }, { "ID": 3, "value": "Cité grecque de Carie" }, { "ID": 26, "value": "170" }, { "ID": 133, "value": "5040" }, { "ID": 227, "value": "5342" }, { "ID": 970, "value": "6560" }, { "ID": 971, "value": "6395" } ], "Division des cités": "1" }, "geometry": { "type": "Point", "coordinates": [ 28.6242516, 36.8245236 ] } },
{ "type": "Feature", "id": "18", "properties": { "rec_ID": "18", "rec_RecTypeID": "12", "rec_Title": "Chalcédoine", "rec_ScratchPad": "", "rec_OwnerUGrpID": "0", "rec_NonOwnerVisibility": "viewable", "rec_Added": "2026-02-26T10:42:35", "rec_Modified": "2026-02-26T10:43:36", "rec_AddedByUGrpID": "2", "details": [ { "ID": 1, "value": "Chalcédoine" }, { "ID": 3, "value": "Cité grecque de Bithynie" }, { "ID": 26, "value": "170" }, { "ID": 133, "value": "5040" }, { "ID": 227, "value": "5342" }, { "ID": 970, "value": "6560" }, { "ID": 971, "value": "6395" } ], "Division des cités": "1" }, "geometry": { "type": "Point", "coordinates": [ 29.0334834, 40.983492 ] } },
{ "type": "Feature", "id": "11", "properties": { "rec_ID": "11", "rec_RecTypeID": "12", "rec_Title": "Chios", "rec_ScratchPad": "", "rec_OwnerUGrpID": "0", "rec_NonOwnerVisibility": "viewable", "rec_Added": "2026-02-26T10:13:03", "rec_Modified": "2026-03-09T14:45:57", "rec_AddedByUGrpID": "2", "details": [ { "ID": 1, "value": "Chios" }, { "ID": 3, "value": "Cité grecque de Sproade orientale" }, { "ID": 26, "value": "111" }, { "ID": 133, "value": "5040" }, { "ID": 227, "value": "5342" }, { "ID": 970, "value": "6560" }, { "ID": 971, "value": "6395" } ], "Division des cités": "3" }, "geometry": { "type": "Point", "coordinates": [ 26.0201394, 38.4020855 ] } },
{ "type": "Feature", "id": "13", "properties": { "rec_ID": "13", "rec_RecTypeID": "12", "rec_Title": "Clazomènes", "rec_ScratchPad": "", "rec_OwnerUGrpID": "0", "rec_NonOwnerVisibility": "viewable", "rec_Added": "2026-02-26T10:16:39", "rec_Modified": "2026-02-26T10:20:09", "rec_AddedByUGrpID": "2", "details": [ { "ID": 1, "value": "Clazomènes" }, { "ID": 3, "value": "Cité grecque de Ionie" }, { "ID": 26, "value": "170" }, { "ID": 133, "value": "5040" }, { "ID": 227, "value": "5342" }, { "ID": 970, "value": "6560" }, { "ID": 971, "value": "6395" } ], "Division des cités": "1" }, "geometry": { "type": "Point", "coordinates": [ 26.7678498, 38.358374 ] } },
{ "type": "Feature", "id": "39", "properties": { "rec_ID": "39", "rec_RecTypeID": "12", "rec_Title": "Cnide", "rec_ScratchPad": "", "rec_OwnerUGrpID": "0", "rec_NonOwnerVisibility": "viewable", "rec_Added": "2026-02-26T16:30:03", "rec_Modified": "2026-03-09T14:52:56", "rec_AddedByUGrpID": "2", "details": [ { "ID": 1, "value": "Cnide" }, { "ID": 3, "value": "Cité grecque de Carie" }, { "ID": 26, "value": "170" }, { "ID": 133, "value": "5040" }, { "ID": 227, "value": "5342" }, { "ID": 970, "value": "6560" }, { "ID": 971, "value": "6395" } ], "Division des cités": "1" }, "geometry": { "type": "Point", "coordinates": [ 27.3739492, 36.686356 ] } },
{ "type": "Feature", "id": "42", "properties": { "rec_ID": "42", "rec_RecTypeID": "12", "rec_Title": "Corinthe", "rec_ScratchPad": "", "rec_OwnerUGrpID": "0", "rec_NonOwnerVisibility": "viewable", "rec_Added": "2026-02-26T16:38:41", "rec_Modified": "2026-02-26T16:40:13", "rec_AddedByUGrpID": "2", "details": [ { "ID": 1, "value": "Corinthe" }, { "ID": 3, "value": "Cité grecque de Corinthie" }, { "ID": 26, "value": "111" }, { "ID": 133, "value": "5040" }, { "ID": 227, "value": "5342" }, { "ID": 970, "value": "6560" }, { "ID": 971, "value": "6395" } ], "Division des cités": "5" }, "geometry": { "type": "Point", "coordinates": [ 22.9322859, 37.9312414 ] } },
{ "type": "Feature", "id": "132", "properties": { "rec_ID": "132", "rec_RecTypeID": "12", "rec_Title": "Crannon", "rec_ScratchPad": "", "rec_OwnerUGrpID": "0", "rec_NonOwnerVisibility": "viewable", "rec_Added": "2026-03-21T18:42:39", "rec_Modified": "2026-03-21T18:43:49", "rec_AddedByUGrpID": "2", "details": [ { "ID": 1, "value": "Crannon" }, { "ID": 26, "value": "111" }, { "ID": 133, "value": "5040" }, { "ID": 227, "value": "5342" }, { "ID": 970, "value": "6560" }, { "ID": 971, "value": "6395" } ], "Division des cités": "5" }, "geometry": { "type": "Point", "coordinates": [ 22.3491735, 39.5200993 ] } },
{ "type": "Feature", "id": "15", "properties": { "rec_ID": "15", "rec_RecTypeID": "12", "rec_Title": "Cyzique", "rec_ScratchPad": "", "rec_OwnerUGrpID": "0", "rec_NonOwnerVisibility": "viewable", "rec_Added": "2026-02-26T10:22:46", "rec_Modified": "2026-02-26T10:29:12", "rec_AddedByUGrpID": "2", "details": [ { "ID": 1, "value": "Cyzique" }, { "ID": 3, "value": "Cité grecque en Mysie" }, { "ID": 26, "value": "170" }, { "ID": 133, "value": "5040" }, { "ID": 227, "value": "5343" }, { "ID": 970, "value": "6560" }, { "ID": 971, "value": "6395" } ], "Division des cités": "1" }, "geometry": { "type": "Point", "coordinates": [ 27.8886947, 40.3810735 ] } },
{ "type": "Feature", "id": "29", "properties": { "rec_ID": "29", "rec_RecTypeID": "12", "rec_Title": "Délos", "rec_ScratchPad": "", "rec_OwnerUGrpID": "0", "rec_NonOwnerVisibility": "viewable", "rec_Added": "2026-02-26T14:17:59", "rec_Modified": "2026-02-26T14:19:14", "rec_AddedByUGrpID": "2", "details": [ { "ID": 1, "value": "Délos" }, { "ID": 3, "value": "Cité grecque des Cyclades" }, { "ID": 26, "value": "111" }, { "ID": 133, "value": "5040" }, { "ID": 227, "value": "5342" }, { "ID": 970, "value": "6560" }, { "ID": 971, "value": "6395" } ], "Division des cités": "3" }, "geometry": { "type": "Point", "coordinates": [ 25.2725083, 37.3955556 ] } },
{ "type": "Feature", "id": "6", "properties": { "rec_ID": "6", "rec_RecTypeID": "12", "rec_Title": "Delphes", "rec_ScratchPad": "", "rec_OwnerUGrpID": "0", "rec_NonOwnerVisibility": "viewable", "rec_Added": "2026-02-25T17:19:37", "rec_Modified": "2026-02-26T10:35:36", "rec_AddedByUGrpID": "2", "details": [ { "ID": 1, "value": "Delphes" }, { "ID": 3, "value": "Cité de Delphes en Phocide" }, { "ID": 26, "value": "111" }, { "ID": 133, "value": "5040" }, { "ID": 227, "value": "5342" }, { "ID": 970, "value": "6565" }, { "ID": 971, "value": "6391" } ], "Division des cités": "5" }, "geometry": { "type": "Point", "coordinates": [ 22.5013175, 38.4827325 ] } },
{ "type": "Feature", "id": "57", "properties": { "rec_ID": "57", "rec_RecTypeID": "12", "rec_Title": "Egine", "rec_ScratchPad": "", "rec_OwnerUGrpID": "0", "rec_NonOwnerVisibility": "viewable", "rec_Added": "2026-02-26T17:17:54", "rec_Modified": "2026-02-26T17:20:00", "rec_AddedByUGrpID": "2", "details": [ { "ID": 1, "value": "Egine" }, { "ID": 3, "value": "Cité du golfe Saronique" }, { "ID": 26, "value": "111" }, { "ID": 133, "value": "5040" }, { "ID": 227, "value": "5342" }, { "ID": 970, "value": "6560" }, { "ID": 971, "value": "6395" } ], "Division des cités": "5" }, "geometry": { "type": "Point", "coordinates": [ 23.4333782, 37.7498085 ] } },
{ "type": "Feature", "id": "50", "properties": { "rec_ID": "50", "rec_RecTypeID": "12", "rec_Title": "Eléonte", "rec_ScratchPad": "", "rec_OwnerUGrpID": "0", "rec_NonOwnerVisibility": "viewable", "rec_Added": "2026-02-26T17:00:13", "rec_Modified": "2026-03-09T15:01:06", "rec_AddedByUGrpID": "2", "details": [ { "ID": 1, "value": "Eléonte" }, { "ID": 3, "value": "Cité grecque de Chersonèse" }, { "ID": 26, "value": "170" }, { "ID": 133, "value": "5040" }, { "ID": 227, "value": "5342" }, { "ID": 970, "value": "6560" }, { "ID": 971, "value": "6395" } ], "Division des cités": "1" }, "geometry": { "type": "Point", "coordinates": [ 26.2257498, 40.0599159 ] } },
{ "type": "Feature", "id": "17", "properties": { "rec_ID": "17", "rec_RecTypeID": "12", "rec_Title": "Ephèse", "rec_ScratchPad": "", "rec_OwnerUGrpID": "0", "rec_NonOwnerVisibility": "viewable", "rec_Added": "2026-02-26T10:37:34", "rec_Modified": "2026-03-05T17:21:44", "rec_AddedByUGrpID": "2", "details": [ { "ID": 1, "value": "Ephèse" }, { "ID": 3, "value": "Cité grecque de Ionie" }, { "ID": 26, "value": "170" }, { "ID": 133, "value": "5040" }, { "ID": 227, "value": "5342" }, { "ID": 970, "value": "6560" }, { "ID": 971, "value": "6395" } ], "Division des cités": "1" }, "geometry": { "type": "Point", "coordinates": [ 27.3393194, 37.9404456 ] } },
{ "type": "Feature", "id": "16", "properties": { "rec_ID": "16", "rec_RecTypeID": "12", "rec_Title": "Erythrée", "rec_ScratchPad": "", "rec_OwnerUGrpID": "0", "rec_NonOwnerVisibility": "viewable", "rec_Added": "2026-02-26T10:30:08", "rec_Modified": "2026-03-09T14:38:04", "rec_AddedByUGrpID": "2", "details": [ { "ID": 1, "value": "Erythrée" }, { "ID": 3, "value": "Cité grecque antique de Ionie" }, { "ID": 26, "value": "170" }, { "ID": 133, "value": "5040" }, { "ID": 227, "value": "5342" }, { "ID": 970, "value": "6560" }, { "ID": 971, "value": "6395" } ], "Division des cités": "1" }, "geometry": { "type": "Point", "coordinates": [ 26.4807497, 38.3827794 ] } },
{ "type": "Feature", "id": "22", "properties": { "rec_ID": "22", "rec_RecTypeID": "12", "rec_Title": "Gaza", "rec_ScratchPad": "", "rec_OwnerUGrpID": "0", "rec_NonOwnerVisibility": "viewable", "rec_Added": "2026-02-26T13:43:41", "rec_Modified": "2026-03-05T17:20:45", "rec_AddedByUGrpID": "2", "details": [ { "ID": 1, "value": "Gaza" }, { "ID": 3, "value": "Cité" }, { "ID": 26, "value": "348" }, { "ID": 133, "value": "5040" }, { "ID": 227, "value": "5342" }, { "ID": 970, "value": "6560" }, { "ID": 971, "value": "6395" } ], "Division des cités": "2" }, "geometry": { "type": "Point", "coordinates": [ 34.4501989, 31.5167475 ] } },
{ "type": "Feature", "id": "20", "properties": { "rec_ID": "20", "rec_RecTypeID": "12", "rec_Title": "Halicarnasse", "rec_ScratchPad": "", "rec_OwnerUGrpID": "0", "rec_NonOwnerVisibility": "viewable", "rec_Added": "2026-02-26T13:39:36", "rec_Modified": "2026-03-05T17:17:04", "rec_AddedByUGrpID": "2", "details": [ { "ID": 1, "value": "Halicarnasse" }, { "ID": 3, "value": "Cité grecque de Carie" }, { "ID": 26, "value": "170" }, { "ID": 133, "value": "5040" }, { "ID": 227, "value": "5342" }, { "ID": 970, "value": "6560" }, { "ID": 971, "value": "6395" } ], "Division des cités": "1" }, "geometry": { "type": "Point", "coordinates": [ 27.4245005, 37.0381194 ] } },
{ "type": "Feature", "id": "30", "properties": { "rec_ID": "30", "rec_RecTypeID": "12", "rec_Title": "Héraclée du Pont", "rec_ScratchPad": "", "rec_OwnerUGrpID": "0", "rec_NonOwnerVisibility": "viewable", "rec_Added": "2026-02-26T14:19:39", "rec_Modified": "2026-02-26T14:21:11", "rec_AddedByUGrpID": "2", "details": [ { "ID": 1, "value": "Héraclée du Pont" }, { "ID": 3, "value": "Cité de Bithynie" }, { "ID": 26, "value": "170" }, { "ID": 133, "value": "5040" }, { "ID": 227, "value": "5342" }, { "ID": 970, "value": "6560" }, { "ID": 971, "value": "6395" } ], "Division des cités": "1" }, "geometry": { "type": "Point", "coordinates": [ 31.4144787, 41.2847559 ] } },
{ "type": "Feature", "id": "5", "properties": { "rec_ID": "5", "rec_RecTypeID": "12", "rec_Title": "Iasos", "rec_ScratchPad": "", "rec_OwnerUGrpID": "0", "rec_NonOwnerVisibility": "viewable", "rec_Added": "2026-02-25T17:17:39", "rec_Modified": "2026-03-05T17:10:24", "rec_AddedByUGrpID": "2", "details": [ { "ID": 1, "value": "Iasos" }, { "ID": 3, "value": "Cité de Iasos en Carie" }, { "ID": 26, "value": "170" }, { "ID": 133, "value": "5040" }, { "ID": 227, "value": "5342" }, { "ID": 970, "value": "6560" }, { "ID": 971, "value": "6395" } ], "Division des cités": "1" }, "geometry": { "type": "Point", "coordinates": [ 27.5862168, 37.2780973 ] } },
{ "type": "Feature", "id": "79", "properties": { "rec_ID": "79", "rec_RecTypeID": "12", "rec_Title": "Kedreai", "rec_ScratchPad": "", "rec_OwnerUGrpID": "0", "rec_NonOwnerVisibility": "viewable", "rec_Added": "2026-03-09T14:11:06", "rec_Modified": "2026-03-09T14:14:25", "rec_AddedByUGrpID": "2", "details": [ { "ID": 1, "value": "Kedreai" }, { "ID": 3, "value": "Cité de Carie" }, { "ID": 26, "value": "170" }, { "ID": 133, "value": "5040" }, { "ID": 227, "value": "5342" }, { "ID": 970, "value": "6560" }, { "ID": 971, "value": "6395" } ], "Division des cités": "1" }, "geometry": { "type": "Point", "coordinates": [ 28.2057845, 36.8417456 ] } },
{ "type": "Feature", "id": "55", "properties": { "rec_ID": "55", "rec_RecTypeID": "12", "rec_Title": "Kimolos", "rec_ScratchPad": "", "rec_OwnerUGrpID": "0", "rec_NonOwnerVisibility": "viewable", "rec_Added": "2026-02-26T17:14:29", "rec_Modified": "2026-02-26T17:15:19", "rec_AddedByUGrpID": "2", "details": [ { "ID": 1, "value": "Kimolos" }, { "ID": 3, "value": "Cité de l'île du même nom" }, { "ID": 26, "value": "111" }, { "ID": 133, "value": "5040" }, { "ID": 227, "value": "5342" }, { "ID": 970, "value": "6560" }, { "ID": 971, "value": "6395" } ], "Division des cités": "3" }, "geometry": { "type": "Point", "coordinates": [ 24.5750946, 36.7931517 ] } },
{ "type": "Feature", "id": "27", "properties": { "rec_ID": "27", "rec_RecTypeID": "12", "rec_Title": "Korésia", "rec_ScratchPad": "", "rec_OwnerUGrpID": "0", "rec_NonOwnerVisibility": "viewable", "rec_Added": "2026-02-26T13:55:24", "rec_Modified": "2026-02-26T13:56:37", "rec_AddedByUGrpID": "2", "details": [ { "ID": 1, "value": "Korésia" }, { "ID": 3, "value": "Cité grecque de l'île de Kéa" }, { "ID": 26, "value": "111" }, { "ID": 133, "value": "5040" }, { "ID": 227, "value": "5342" }, { "ID": 970, "value": "6560" }, { "ID": 971, "value": "6395" } ], "Division des cités": "3" }, "geometry": { "type": "Point", "coordinates": [ 24.3070509, 37.6582812 ] } },
{ "type": "Feature", "id": "14", "properties": { "rec_ID": "14", "rec_RecTypeID": "12", "rec_Title": "Kos", "rec_ScratchPad": "", "rec_OwnerUGrpID": "0", "rec_NonOwnerVisibility": "viewable", "rec_Added": "2026-02-26T10:20:12", "rec_Modified": "2026-02-26T10:22:03", "rec_AddedByUGrpID": "2", "details": [ { "ID": 1, "value": "Kos" }, { "ID": 3, "value": "Cité de l'archipel de Dodécanèse" }, { "ID": 26, "value": "111" }, { "ID": 133, "value": "5040" }, { "ID": 227, "value": "5342" }, { "ID": 970, "value": "6560" }, { "ID": 971, "value": "6395" } ], "Division des cités": "3" }, "geometry": { "type": "Point", "coordinates": [ 27.2327595, 36.8516342 ] } },
{ "type": "Feature", "id": "59", "properties": { "rec_ID": "59", "rec_RecTypeID": "12", "rec_Title": "Kymè", "rec_ScratchPad": "", "rec_OwnerUGrpID": "0", "rec_NonOwnerVisibility": "viewable", "rec_Added": "2026-02-26T17:22:30", "rec_Modified": "2026-02-26T17:23:16", "rec_AddedByUGrpID": "2", "details": [ { "ID": 1, "value": "Kymè" }, { "ID": 3, "value": "Cité grecque d'Eolide" }, { "ID": 26, "value": "170" }, { "ID": 133, "value": "5040" }, { "ID": 227, "value": "5342" }, { "ID": 970, "value": "6560" }, { "ID": 971, "value": "6395" } ], "Division des cités": "1" }, "geometry": { "type": "Point", "coordinates": [ 26.9365042, 38.7590929 ] } },
{ "type": "Feature", "id": "53", "properties": { "rec_ID": "53", "rec_RecTypeID": "12", "rec_Title": "Lamia", "rec_ScratchPad": "", "rec_OwnerUGrpID": "0", "rec_NonOwnerVisibility": "viewable", "rec_Added": "2026-02-26T17:10:15", "rec_Modified": "2026-02-26T17:11:12", "rec_AddedByUGrpID": "2", "details": [ { "ID": 1, "value": "Lamia" }, { "ID": 3, "value": "Cité de Grèce Centrale" }, { "ID": 26, "value": "111" }, { "ID": 133, "value": "5040" }, { "ID": 227, "value": "5342" }, { "ID": 970, "value": "6560" }, { "ID": 971, "value": "6395" } ], "Division des cités": "5" }, "geometry": { "type": "Point", "coordinates": [ 22.4332584, 38.8999476 ] } },
{ "type": "Feature", "id": "9", "properties": { "rec_ID": "9", "rec_RecTypeID": "12", "rec_Title": "Lampsaque", "rec_ScratchPad": "", "rec_OwnerUGrpID": "0", "rec_NonOwnerVisibility": "viewable", "rec_Added": "2026-02-25T17:26:46", "rec_Modified": "2026-02-26T13:58:07", "rec_AddedByUGrpID": "2", "details": [ { "ID": 1, "value": "Lampsaque" }, { "ID": 3, "value": "Cité de Troade hautement stratégique pour le passage dans le Pont-Euxin" }, { "ID": 26, "value": "170" }, { "ID": 133, "value": "5040" }, { "ID": 227, "value": "5342" }, { "ID": 970, "value": "6560" }, { "ID": 971, "value": "6395" } ], "Division des cités": "1" }, "geometry": { "type": "Point", "coordinates": [ 26.6836182, 40.3438841 ] } },
{ "type": "Feature", "id": "8", "properties": { "rec_ID": "8", "rec_RecTypeID": "12", "rec_Title": "Magnésie du Méandre", "rec_ScratchPad": "", "rec_OwnerUGrpID": "0", "rec_NonOwnerVisibility": "viewable", "rec_Added": "2026-02-25T17:25:08", "rec_Modified": "2026-02-25T17:26:03", "rec_AddedByUGrpID": "2", "details": [ { "ID": 1, "value": "Magnésie du Méandre" }, { "ID": 3, "value": "Cité de Ionie" }, { "ID": 26, "value": "170" }, { "ID": 133, "value": "5040" }, { "ID": 227, "value": "5342" }, { "ID": 970, "value": "6560" }, { "ID": 971, "value": "6395" } ], "Division des cités": "1" }, "geometry": { "type": "Point", "coordinates": [ 27.5225807, 37.8493075 ] } },
{ "type": "Feature", "id": "44", "properties": { "rec_ID": "44", "rec_RecTypeID": "12", "rec_Title": "Mélos", "rec_ScratchPad": "", "rec_OwnerUGrpID": "0", "rec_NonOwnerVisibility": "viewable", "rec_Added": "2026-02-26T16:43:01", "rec_Modified": "2026-03-09T15:11:04", "rec_AddedByUGrpID": "2", "details": [ { "ID": 1, "value": "Mélos" }, { "ID": 3, "value": "Cité grecque des Cyclades" }, { "ID": 26, "value": "111" }, { "ID": 133, "value": "5040" }, { "ID": 227, "value": "5342" }, { "ID": 970, "value": "6560" }, { "ID": 971, "value": "6395" } ], "Division des cités": "3" }, "geometry": { "type": "Point", "coordinates": [ 24.4662162, 36.7161531 ] } },
{ "type": "Feature", "id": "46", "properties": { "rec_ID": "46", "rec_RecTypeID": "12", "rec_Title": "Méthymne", "rec_ScratchPad": "", "rec_OwnerUGrpID": "0", "rec_NonOwnerVisibility": "viewable", "rec_Added": "2026-02-26T16:49:20", "rec_Modified": "2026-03-09T14:47:24", "rec_AddedByUGrpID": "2", "details": [ { "ID": 1, "value": "Méthymne" }, { "ID": 3, "value": "Cité grecque de l'île de Lesbos" }, { "ID": 26, "value": "111" }, { "ID": 133, "value": "5040" }, { "ID": 227, "value": "5342" }, { "ID": 970, "value": "6560" }, { "ID": 971, "value": "6395" } ], "Division des cités": "3" }, "geometry": { "type": "Point", "coordinates": [ 26.1738756, 39.3679916 ] } },
{ "type": "Feature", "id": "3", "properties": { "rec_ID": "3", "rec_RecTypeID": "12", "rec_Title": "Milet", "rec_ScratchPad": "", "rec_OwnerUGrpID": "0", "rec_NonOwnerVisibility": "viewable", "rec_Added": "2026-02-25T17:11:22", "rec_Modified": "2026-03-05T17:25:37", "rec_AddedByUGrpID": "2", "details": [ { "ID": 1, "value": "Milet" }, { "ID": 3, "value": "Cité importante de Ionie" }, { "ID": 26, "value": "170" }, { "ID": 133, "value": "5040" }, { "ID": 227, "value": "5342" }, { "ID": 970, "value": "6560" }, { "ID": 971, "value": "6395" } ], "Division des cités": "1" }, "geometry": { "type": "Point", "coordinates": [ 27.2798246, 37.5318313 ] } },
{ "type": "Feature", "id": "48", "properties": { "rec_ID": "48", "rec_RecTypeID": "12", "rec_Title": "Myrina", "rec_ScratchPad": "", "rec_OwnerUGrpID": "0", "rec_NonOwnerVisibility": "viewable", "rec_Added": "2026-02-26T16:54:44", "rec_Modified": "2026-02-26T16:57:19", "rec_AddedByUGrpID": "2", "details": [ { "ID": 1, "value": "Myrina" }, { "ID": 3, "value": "Cité de l'île de Lemnos" }, { "ID": 26, "value": "170" }, { "ID": 133, "value": "5040" }, { "ID": 227, "value": "5343" }, { "ID": 970, "value": "6560" }, { "ID": 971, "value": "6395" } ], "Division des cités": "3" }, "geometry": { "type": "Point", "coordinates": [ 25.2498969, 39.9176058 ] } },
{ "type": "Feature", "id": "12", "properties": { "rec_ID": "12", "rec_RecTypeID": "12", "rec_Title": "Mytilène", "rec_ScratchPad": "", "rec_OwnerUGrpID": "0", "rec_NonOwnerVisibility": "viewable", "rec_Added": "2026-02-26T10:15:03", "rec_Modified": "2026-03-21T18:37:05", "rec_AddedByUGrpID": "2", "details": [ { "ID": 1, "value": "Mytilène" }, { "ID": 3, "value": "Cité de l'île de Lesbos" }, { "ID": 26, "value": "111" }, { "ID": 133, "value": "5040" }, { "ID": 227, "value": "5342" }, { "ID": 970, "value": "6560" }, { "ID": 971, "value": "6395" } ], "Division des cités": "3" }, "geometry": { "type": "Point", "coordinates": [ 26.5501689, 39.0999392 ] } },
{ "type": "Feature", "id": "147", "properties": { "rec_ID": "147", "rec_RecTypeID": "12", "rec_Title": "Naxos", "rec_ScratchPad": "", "rec_OwnerUGrpID": "0", "rec_NonOwnerVisibility": "viewable", "rec_Added": "2026-03-25T14:43:20", "rec_Modified": "2026-03-25T14:44:52", "rec_AddedByUGrpID": "2", "details": [ { "ID": 1, "value": "Naxos" }, { "ID": 3, "value": "Cité de l'Egée-méridionale" }, { "ID": 26, "value": "111" }, { "ID": 133, "value": "5041" }, { "ID": 227, "value": "5342" }, { "ID": 970, "value": "6560" }, { "ID": 971, "value": "6395" } ], "Division des cités": "3" }, "geometry": { "type": "Point", "coordinates": [ 25.3767885, 37.1045788 ] } },
{ "type": "Feature", "id": "26", "properties": { "rec_ID": "26", "rec_RecTypeID": "12", "rec_Title": "Notion", "rec_ScratchPad": "", "rec_OwnerUGrpID": "0", "rec_NonOwnerVisibility": "viewable", "rec_Added": "2026-02-26T13:51:26", "rec_Modified": "2026-03-05T17:24:45", "rec_AddedByUGrpID": "2", "details": [ { "ID": 1, "value": "Notion" }, { "ID": 3, "value": "Cité grecque" }, { "ID": 26, "value": "170" }, { "ID": 133, "value": "5040" }, { "ID": 227, "value": "5342" }, { "ID": 970, "value": "6560" }, { "ID": 971, "value": "6395" } ], "Division des cités": "1" }, "geometry": { "type": "Point", "coordinates": [ 27.1941184, 37.9915525 ] } },
{ "type": "Feature", "id": "58", "properties": { "rec_ID": "58", "rec_RecTypeID": "12", "rec_Title": "Olympie", "rec_ScratchPad": "", "rec_OwnerUGrpID": "0", "rec_NonOwnerVisibility": "viewable", "rec_Added": "2026-02-26T17:20:54", "rec_Modified": "2026-02-26T17:22:05", "rec_AddedByUGrpID": "2", "details": [ { "ID": 1, "value": "Olympie" }, { "ID": 3, "value": "Cité grecque du Péloponnèse" }, { "ID": 26, "value": "111" }, { "ID": 133, "value": "5040" }, { "ID": 227, "value": "5342" }, { "ID": 970, "value": "6565" }, { "ID": 971, "value": "6391" } ], "Division des cités": "5" }, "geometry": { "type": "Point", "coordinates": [ 21.6302531, 37.6379513 ] } },
{ "type": "Feature", "id": "49", "properties": { "rec_ID": "49", "rec_RecTypeID": "12", "rec_Title": "Olynthe", "rec_ScratchPad": "", "rec_OwnerUGrpID": "0", "rec_NonOwnerVisibility": "viewable", "rec_Added": "2026-02-26T16:58:00", "rec_Modified": "2026-03-09T14:57:17", "rec_AddedByUGrpID": "2", "details": [ { "ID": 1, "value": "Olynthe" }, { "ID": 3, "value": "Cité de Chalcidique" }, { "ID": 26, "value": "111" }, { "ID": 133, "value": "5040" }, { "ID": 227, "value": "5342" }, { "ID": 970, "value": "6560" }, { "ID": 971, "value": "6395" } ], "Division des cités": "5" }, "geometry": { "type": "Point", "coordinates": [ 23.3554899, 40.2964657 ] } },
{ "type": "Feature", "id": "124", "properties": { "rec_ID": "124", "rec_RecTypeID": "12", "rec_Title": "Parion", "rec_ScratchPad": "", "rec_OwnerUGrpID": "0", "rec_NonOwnerVisibility": "viewable", "rec_Added": "2026-03-21T18:27:16", "rec_Modified": "2026-03-21T18:28:06", "rec_AddedByUGrpID": "2", "details": [ { "ID": 1, "value": "Parion" }, { "ID": 3, "value": "Cité de Mysie" }, { "ID": 26, "value": "170" }, { "ID": 133, "value": "5040" }, { "ID": 227, "value": "5342" }, { "ID": 970, "value": "6560" }, { "ID": 971, "value": "6395" } ], "Division des cités": "1" }, "geometry": { "type": "Point", "coordinates": [ 27.0701324, 40.4158363 ] } },
{ "type": "Feature", "id": "37", "properties": { "rec_ID": "37", "rec_RecTypeID": "12", "rec_Title": "Phasélis", "rec_ScratchPad": "", "rec_OwnerUGrpID": "0", "rec_NonOwnerVisibility": "viewable", "rec_Added": "2026-02-26T15:56:00", "rec_Modified": "2026-02-26T15:57:02", "rec_AddedByUGrpID": "2", "details": [ { "ID": 1, "value": "Phasélis" }, { "ID": 3, "value": "Cité de Lycie" }, { "ID": 26, "value": "170" }, { "ID": 133, "value": "5040" }, { "ID": 227, "value": "5342" }, { "ID": 970, "value": "6560" }, { "ID": 971, "value": "6395" } ], "Division des cités": "1" }, "geometry": { "type": "Point", "coordinates": [ 30.5523155, 36.5238997 ] } },
{ "type": "Feature", "id": "28", "properties": { "rec_ID": "28", "rec_RecTypeID": "12", "rec_Title": "Priène", "rec_ScratchPad": "", "rec_OwnerUGrpID": "0", "rec_NonOwnerVisibility": "viewable", "rec_Added": "2026-02-26T14:15:53", "rec_Modified": "2026-02-26T14:17:23", "rec_AddedByUGrpID": "2", "details": [ { "ID": 1, "value": "Priène" }, { "ID": 3, "value": "Cité grecque de Ionie" }, { "ID": 26, "value": "170" }, { "ID": 133, "value": "5040" }, { "ID": 227, "value": "5342" }, { "ID": 970, "value": "6560" }, { "ID": 971, "value": "6395" } ], "Division des cités": "1" }, "geometry": { "type": "Point", "coordinates": [ 27.2977174, 37.6598426 ] } },
{ "type": "Feature", "id": "41", "properties": { "rec_ID": "41", "rec_RecTypeID": "12", "rec_Title": "Pylos", "rec_ScratchPad": "", "rec_OwnerUGrpID": "0", "rec_NonOwnerVisibility": "viewable", "rec_Added": "2026-02-26T16:35:35", "rec_Modified": "2026-02-26T16:36:48", "rec_AddedByUGrpID": "2", "details": [ { "ID": 1, "value": "Pylos" }, { "ID": 3, "value": "Cité grecque de Messénie" }, { "ID": 26, "value": "111" }, { "ID": 133, "value": "5040" }, { "ID": 227, "value": "5342" }, { "ID": 970, "value": "6560" }, { "ID": 971, "value": "6395" } ], "Division des cités": "5" }, "geometry": { "type": "Point", "coordinates": [ 21.6941044, 36.9104865 ] } },
{ "type": "Feature", "id": "10", "properties": { "rec_ID": "10", "rec_RecTypeID": "12", "rec_Title": "Rhodes", "rec_ScratchPad": "", "rec_OwnerUGrpID": "0", "rec_NonOwnerVisibility": "viewable", "rec_Added": "2026-02-25T17:28:57", "rec_Modified": "2026-02-25T17:30:39", "rec_AddedByUGrpID": "2", "details": [ { "ID": 1, "value": "Rhodes" }, { "ID": 3, "value": "Cité de Rhodes dans l'archipel de Dodécanèse" }, { "ID": 26, "value": "111" }, { "ID": 133, "value": "5040" }, { "ID": 227, "value": "5342" }, { "ID": 970, "value": "6560" }, { "ID": 971, "value": "6395" } ], "Division des cités": "3" }, "geometry": { "type": "Point", "coordinates": [ 28.0014684, 36.1687877 ] } },
{ "type": "Feature", "id": "2", "properties": { "rec_ID": "2", "rec_RecTypeID": "12", "rec_Title": "Samos", "rec_ScratchPad": "", "rec_OwnerUGrpID": "0", "rec_NonOwnerVisibility": "viewable", "rec_Added": "2026-02-25T17:03:08", "rec_Modified": "2026-03-09T15:07:55", "rec_AddedByUGrpID": "2", "details": [ { "ID": 1, "value": "Samos" }, { "ID": 3, "value": "Cité importante d'Asie Mineure sur une île" }, { "ID": 26, "value": "170" }, { "ID": 27, "value": "Samos" }, { "ID": 133, "value": "5040" }, { "ID": 134, "value": "2", "resourceTitle": "Samos", "resourceRecTypeID": "12" }, { "ID": 227, "value": "5342" }, { "ID": 238, "value": "2", "resourceTitle": "Samos", "resourceRecTypeID": "12" }, { "ID": 551, "value": "3325" }, { "ID": 945, "value": "2", "resourceTitle": "Samos", "resourceRecTypeID": "12" }, { "ID": 970, "value": "6560" }, { "ID": 971, "value": "6395" }, { "ID": 1023, "value": "Samos" } ], "Division des cités": "3" }, "geometry": { "type": "Point", "coordinates": [ 26.8339562, 37.7503109 ] } },
{ "type": "Feature", "id": "43", "properties": { "rec_ID": "43", "rec_RecTypeID": "12", "rec_Title": "Samothrace", "rec_ScratchPad": "", "rec_OwnerUGrpID": "0", "rec_NonOwnerVisibility": "viewable", "rec_Added": "2026-02-26T16:41:02", "rec_Modified": "2026-02-26T16:41:56", "rec_AddedByUGrpID": "2", "details": [ { "ID": 1, "value": "Samothrace" }, { "ID": 3, "value": "Cité grecque de l'île de Samothrace" }, { "ID": 26, "value": "111" }, { "ID": 133, "value": "5040" }, { "ID": 227, "value": "5342" }, { "ID": 970, "value": "6560" }, { "ID": 971, "value": "6395" } ], "Division des cités": "3" }, "geometry": { "type": "Point", "coordinates": [ 25.5229701, 40.4733937 ] } },
{ "type": "Feature", "id": "47", "properties": { "rec_ID": "47", "rec_RecTypeID": "12", "rec_Title": "Sardes", "rec_ScratchPad": "", "rec_OwnerUGrpID": "0", "rec_NonOwnerVisibility": "viewable", "rec_Added": "2026-02-26T16:51:12", "rec_Modified": "2026-02-26T16:52:37", "rec_AddedByUGrpID": "2", "details": [ { "ID": 1, "value": "Sardes" }, { "ID": 3, "value": "Cité de Lydie, siège du satrape achéménide" }, { "ID": 26, "value": "170" }, { "ID": 133, "value": "5040" }, { "ID": 227, "value": "5342" }, { "ID": 970, "value": "6560" }, { "ID": 971, "value": "6395" } ], "Division des cités": "1" }, "geometry": { "type": "Point", "coordinates": [ 28.0402733, 38.4881598 ] } },
{ "type": "Feature", "id": "7", "properties": { "rec_ID": "7", "rec_RecTypeID": "12", "rec_Title": "Sestos", "rec_ScratchPad": "", "rec_OwnerUGrpID": "0", "rec_NonOwnerVisibility": "viewable", "rec_Added": "2026-02-25T17:21:54", "rec_Modified": "2026-03-21T18:32:39", "rec_AddedByUGrpID": "2", "details": [ { "ID": 1, "value": "Sestos" }, { "ID": 3, "value": "Cité de Chersonèse de Thrace hautement stratégique sur le détroit de l'Hellespont" }, { "ID": 26, "value": "170" }, { "ID": 133, "value": "5040" }, { "ID": 227, "value": "5342" }, { "ID": 970, "value": "6560" }, { "ID": 971, "value": "6395" } ], "Division des cités": "4" }, "geometry": { "type": "Point", "coordinates": [ 26.3893184, 40.2134284 ] } },
{ "type": "Feature", "id": "45", "properties": { "rec_ID": "45", "rec_RecTypeID": "12", "rec_Title": "Sparte", "rec_ScratchPad": "", "rec_OwnerUGrpID": "0", "rec_NonOwnerVisibility": "viewable", "rec_Added": "2026-02-26T16:47:20", "rec_Modified": "2026-02-26T16:48:02", "rec_AddedByUGrpID": "2", "details": [ { "ID": 1, "value": "Sparte" }, { "ID": 3, "value": "Cité grecque du Péloponnèse" }, { "ID": 26, "value": "111" }, { "ID": 133, "value": "5040" }, { "ID": 227, "value": "5342" }, { "ID": 970, "value": "6560" }, { "ID": 971, "value": "6395" } ], "Division des cités": "5" }, "geometry": { "type": "Point", "coordinates": [ 22.4234637, 37.0825836 ] } },
{ "type": "Feature", "id": "52", "properties": { "rec_ID": "52", "rec_RecTypeID": "12", "rec_Title": "Ténèdos", "rec_ScratchPad": "", "rec_OwnerUGrpID": "0", "rec_NonOwnerVisibility": "viewable", "rec_Added": "2026-02-26T17:08:31", "rec_Modified": "2026-02-26T17:09:42", "rec_AddedByUGrpID": "2", "details": [ { "ID": 1, "value": "Ténèdos" }, { "ID": 3, "value": "Cité de Ténèdos en Sproades Thraces" }, { "ID": 26, "value": "170" }, { "ID": 133, "value": "5040" }, { "ID": 227, "value": "5342" }, { "ID": 970, "value": "6560" }, { "ID": 971, "value": "6395" } ], "Division des cités": "3" }, "geometry": { "type": "Point", "coordinates": [ 26.022165, 39.817407 ] } },
{ "type": "Feature", "id": "25", "properties": { "rec_ID": "25", "rec_RecTypeID": "12", "rec_Title": "Téos", "rec_ScratchPad": "", "rec_OwnerUGrpID": "0", "rec_NonOwnerVisibility": "viewable", "rec_Added": "2026-02-26T13:49:55", "rec_Modified": "2026-03-05T17:23:12", "rec_AddedByUGrpID": "2", "details": [ { "ID": 1, "value": "Téos" }, { "ID": 3, "value": "Cité de Ionie" }, { "ID": 26, "value": "170" }, { "ID": 133, "value": "5040" }, { "ID": 227, "value": "5342" }, { "ID": 970, "value": "6560" }, { "ID": 971, "value": "6395" } ], "Division des cités": "1" }, "geometry": { "type": "Point", "coordinates": [ 26.7848777, 38.177228 ] } },
{ "type": "Feature", "id": "54", "properties": { "rec_ID": "54", "rec_RecTypeID": "12", "rec_Title": "Thèbes", "rec_ScratchPad": "", "rec_OwnerUGrpID": "0", "rec_NonOwnerVisibility": "viewable", "rec_Added": "2026-02-26T17:12:10", "rec_Modified": "2026-02-26T17:13:47", "rec_AddedByUGrpID": "2", "details": [ { "ID": 1, "value": "Thèbes" }, { "ID": 3, "value": "Cité de Béotie" }, { "ID": 26, "value": "111" }, { "ID": 133, "value": "5040" }, { "ID": 227, "value": "5342" }, { "ID": 970, "value": "6560" }, { "ID": 971, "value": "6395" } ], "Division des cités": "5" }, "geometry": { "type": "Point", "coordinates": [ 23.316696, 38.3168116 ] } },
{ "type": "Feature", "id": "34", "properties": { "rec_ID": "34", "rec_RecTypeID": "12", "rec_Title": "Théra", "rec_ScratchPad": "", "rec_OwnerUGrpID": "0", "rec_NonOwnerVisibility": "viewable", "rec_Added": "2026-02-26T14:28:57", "rec_Modified": "2026-02-26T14:29:56", "rec_AddedByUGrpID": "2", "details": [ { "ID": 1, "value": "Théra" }, { "ID": 3, "value": "Cité grecque de l'île de Santorin" }, { "ID": 26, "value": "111" }, { "ID": 133, "value": "5040" }, { "ID": 227, "value": "5342" }, { "ID": 970, "value": "6560" }, { "ID": 971, "value": "6395" } ], "Division des cités": "3" }, "geometry": { "type": "Point", "coordinates": [ 25.4781083, 36.3634081 ] } },
{ "type": "Feature", "id": "21", "properties": { "rec_ID": "21", "rec_RecTypeID": "12", "rec_Title": "Tyr", "rec_ScratchPad": "", "rec_OwnerUGrpID": "0", "rec_NonOwnerVisibility": "viewable", "rec_Added": "2026-02-26T13:41:49", "rec_Modified": "2026-03-05T17:20:12", "rec_AddedByUGrpID": "2", "details": [ { "ID": 1, "value": "Tyr" }, { "ID": 3, "value": "Cité de Phénicie" }, { "ID": 133, "value": "5040" }, { "ID": 227, "value": "5342" }, { "ID": 970, "value": "6560" }, { "ID": 971, "value": "6395" } ], "Division des cités": "2" }, "geometry": { "type": "Point", "coordinates": [ 35.2167184, 33.2687922 ] } },
{ "type": "Feature", "id": "51", "properties": { "rec_ID": "51", "rec_RecTypeID": "12", "rec_Title": "Xanthos", "rec_ScratchPad": "", "rec_OwnerUGrpID": "0", "rec_NonOwnerVisibility": "viewable", "rec_Added": "2026-02-26T17:04:41", "rec_Modified": "2026-02-26T17:06:07", "rec_AddedByUGrpID": "2", "details": [ { "ID": 1, "value": "Xanthos" }, { "ID": 3, "value": "Cité grecque de Lycie" }, { "ID": 26, "value": "170" }, { "ID": 133, "value": "5040" }, { "ID": 227, "value": "5342" }, { "ID": 970, "value": "6560" }, { "ID": 971, "value": "6395" } ], "Division des cités": "1" }, "geometry": { "type": "Point", "coordinates": [ 29.3181348, 36.3565276 ] } }
]
}
